[{"OBJECT_NAME":"IRIDIUM 148","OBJECT_ID":"2018-030G","EPOCH":"2026-03-09T17:19:11.405856","MEAN_MOTION":14.34218043,"ECCENTRICITY":0.00021734,"INCLINATION":86.4007,"RA_OF_ASC_NODE":332.0603,"ARG_OF_PERICENTER":85.9806,"MEAN_ANOMALY":274.1638,"EPHEMERIS_TYPE":0,"CLASSIFICATION_TYPE":"U","NORAD_CAT_ID":43255,"ELEMENT_SET_NO":999,"REV_AT_EPOCH":41591,"BSTAR":1.8722771e-5,"MEAN_MOTION_DOT":7.2e-7,"MEAN_MOTION_DDOT":0},{"OBJECT_NAME":"ORBCOMM FM16 DEB","OBJECT_ID":"1998-046S","EPOCH":"2026-03-09T07:32:05.679168","MEAN_MOTION":14.34878595,"ECCENTRICITY":0.0008751,"INCLINATION":45.0049,"RA_OF_ASC_NODE":55.3558,"ARG_OF_PERICENTER":315.2511,"MEAN_ANOMALY":44.7629,"EPHEMERIS_TYPE":0,"CLASSIFICATION_TYPE":"U","NORAD_CAT_ID":44023,"ELEMENT_SET_NO":999,"REV_AT_EPOCH":37512,"BSTAR":0.00037425014,"MEAN_MOTION_DOT":9.32e-6,"MEAN_MOTION_DDOT":0}]
